      2.10          N: GNSS NAV DATA                        RINEX VERSION / TYPE
fic2rin                                 09/23/2021 00:17:32 PGM / RUN BY / DATE
                                                            END OF HEADER
25 21  9 22  4  0  0.0 2.122684381902e-04 6.252776074689e-12 0.000000000000e+00
    1.100000000000e+01 1.250000000000e-01 5.020923427329e-09 2.652921701546e+00
   -1.434236764908e-07 9.895146940835e-03 2.583488821983e-06 5.153563407898e+03
    2.736000000000e+05-1.862645149231e-09-1.390955820859e+00-1.676380634308e-07
    9.591123941267e-01 3.276250000000e+02 9.683508124982e-01-8.350704983239e-09
   -1.785788670980e-12 1.000000000000e+00 2.176000000000e+03 0.000000000000e+00
    2.400000000000e+00 0.000000000000e+00 5.587935447693e-09 1.100000000000e+01
    2.664000000000e+05 4.000000000000e+00
26 21  9 22  4  0  0.0 1.368592493236e-04 4.206412995700e-12 0.000000000000e+00
    1.600000000000e+01 1.106250000000e+01 5.689165548009e-09 1.972747791881e+00
    6.742775440216e-07 6.128268316388e-03 2.481043338776e-06 5.153620410919e+03
    2.736000000000e+05-1.285225152969e-07-1.435248451105e+00 1.378357410431e-07
    9.400007533416e-01 3.215000000000e+02 2.949710498825e-01-8.870726644228e-09
    6.107397254753e-11 1.000000000000e+00 2.176000000000e+03 0.000000000000e+00
    2.400000000000e+00 0.000000000000e+00 6.984919309616e-09 1.600000000000e+01
    2.664000000000e+05 4.000000000000e+00
16 21  9 22  4  0  0.0-3.946539945900e-04-6.366462912410e-12 0.000000000000e+00
    6.600000000000e+01-1.128125000000e+01 4.955563561971e-09 9.770821307984e-01
   -3.464519977570e-07 1.223675045185e-02 3.097578883171e-06 5.153753091812e+03
    2.736000000000e+05-6.519258022308e-08-1.297253408977e+00 1.285225152969e-07
    9.717598080737e-01 3.263750000000e+02 6.805305281309e-01-8.617858968417e-09
   -2.225092684042e-10 1.000000000000e+00 2.176000000000e+03 0.000000000000e+00
    2.400000000000e+00 0.000000000000e+00-1.024454832077e-08 6.600000000000e+01
    2.664000000000e+05 4.000000000000e+00
 9 21  9 22  4  0  0.0-3.612805157900e-04-4.547473508865e-13 0.000000000000e+00
    6.400000000000e+01-7.587500000000e+01 4.504473343681e-09 5.284444864397e-01
   -4.014000296593e-06 2.185140969232e-03 9.952113032341e-06 5.153711912155e+03
    2.736000000000e+05 2.607703208923e-08 2.783460163911e+00-6.891787052155e-08
    9.540423764944e-01 1.819687500000e+02 1.815363076999e+00-8.135338869518e-09
   -4.032310819074e-10 1.000000000000e+00 2.176000000000e+03 0.000000000000e+00
    2.400000000000e+00 0.000000000000e+00 1.396983861923e-09 6.400000000000e+01
    2.664000000000e+05 4.000000000000e+00
14 21  9 22  4  0  0.0-3.702938556671e-06-7.958078640513e-12 0.000000000000e+00
    1.600000000000e+02 2.812500000000e-01 5.225217651289e-09 2.757076117436e+00
    8.940696716309e-08 1.107525196858e-03 2.667307853699e-06 5.153639774323e+03
    2.736000000000e+05-5.587935447693e-08-1.344970325218e+00 3.166496753693e-08
    9.551834350412e-01 3.255937500000e+02 3.116070937342e+00-8.583571825934e-09
    2.607251459631e-11 1.000000000000e+00 2.176000000000e+03 0.000000000000e+00
    2.400000000000e+00 0.000000000000e+00-7.916241884232e-09 1.600000000000e+02
    2.664000000000e+05 4.000000000000e+00
10 21  9 22  4  0  0.0-2.082991413772e-04-7.844391802792e-12 0.000000000000e+00
    8.600000000000e+01 7.187500000000e-01 4.706624621236e-09 2.189381347287e+00
    3.166496753693e-08 6.953580537811e-03 3.086403012276e-06 5.153669055939e+03
    2.736000000000e+05-1.713633537292e-07 1.751247832170e+00-7.078051567078e-08
    9.701818797638e-01 3.251250000000e+02-2.584850319540e+00-8.360348242062e-09
    1.464346710204e-11 1.000000000000e+00 2.176000000000e+03 0.000000000000e+00
    2.400000000000e+00 0.000000000000e+00 2.328306436539e-09 8.600000000000e+01
    2.664000000000e+05 4.000000000000e+00
 8 21  9 22  4  0  0.0-3.736978396773e-05-1.364242052659e-12 0.000000000000e+00
    9.300000000000e+01-8.209375000000e+01 4.403754862638e-09 1.939444318441e-01
   -4.382804036140e-06 6.512931315228e-03 9.996816515923e-06 5.153657436371e+03
    2.736000000000e+05 1.080334186554e-07-3.588965483847e-01-1.862645149231e-09
    9.664702649544e-01 1.877500000000e+02 5.447208237516e-02-8.098194465162e-09
   -5.857386840816e-10 1.000000000000e+00 2.176000000000e+03 0.000000000000e+00
    3.400000000000e+00 0.000000000000e+00 5.122274160385e-09 9.300000000000e+01
    2.664000000000e+05 4.000000000000e+00
 6 21  9 22  4  0  0.0 7.919967174530e-05 7.503331289627e-12 0.000000000000e+00
    6.700000000000e+01 6.121875000000e+01 3.855874898381e-09-1.796936520750e+00
    3.142282366753e-06 2.181808813475e-03 1.034513115883e-05 5.153581495285e+03
    2.736000000000e+05-1.117587089539e-08 7.090740596665e-01 3.352761268616e-08
    9.850296570905e-01 1.948125000000e+02-1.013734681616e+00-7.731393472143e-09
    3.296565886630e-10 1.000000000000e+00 2.176000000000e+03 0.000000000000e+00
    2.400000000000e+00 0.000000000000e+00 3.725290298462e-09 6.700000000000e+01
    2.664000000000e+05 4.000000000000e+00
15 21  9 22  4  0  0.0-1.193648204207e-04 2.728484105319e-12 0.000000000000e+00
    6.300000000000e+01-7.006250000000e+01 5.212359972858e-09-8.002382589413e-01
   -3.408640623093e-06 1.369261741638e-02 8.590519428253e-06 5.153681419373e+03
    2.736000000000e+05-1.490116119385e-08 2.681328690160e+00 2.738088369370e-07
    9.297077699918e-01 1.968125000000e+02 1.030124368746e+00-8.611430129202e-09
   -3.732298322349e-10 1.000000000000e+00 2.176000000000e+03 0.000000000000e+00
    2.400000000000e+00 0.000000000000e+00-1.071020960808e-08 6.300000000000e+01
    2.664000000000e+05 4.000000000000e+00
11 21  9 22  4  0  0.0 1.925369724631e-05 2.046363078989e-12 0.000000000000e+00
    1.620000000000e+02 6.493750000000e+01 4.426255799892e-09 7.979775853009e-01
    3.257766366005e-06 4.938237834722e-04 9.562820196152e-06 5.153705713272e+03
    2.736000000000e+05 3.352761268616e-08 7.644969159080e-01-1.676380634308e-08
    9.605734338192e-01 1.987187500000e+02 2.126877073699e+00-8.037120492614e-09
    3.121558596874e-10 1.000000000000e+00 2.176000000000e+03 0.000000000000e+00
    3.840000000000e+02 6.300000000000e+01-8.381903171539e-09 1.620000000000e+02
    2.664000000000e+05 4.000000000000e+00
31 21  9 22  4  0  0.0-1.410446129739e-04-2.046363078989e-12 0.000000000000e+00
    7.500000000000e+01 8.562500000000e+01 4.555904057405e-09 3.075257887006e+00
    4.438683390617e-06 1.018305192702e-02 1.071207225323e-05 5.153620885849e+03
    2.736000000000e+05-1.005828380585e-07-2.410484562152e+00-5.960464477539e-08
    9.558109464367e-01 1.713750000000e+02 2.968403095504e-01-7.924258648609e-09
    5.482371219910e-10 1.000000000000e+00 2.176000000000e+03 0.000000000000e+00
    2.400000000000e+00 0.000000000000e+00-1.303851604462e-08 7.500000000000e+01
    2.664000000000e+05 4.000000000000e+00
27 21  9 22  4  0  0.0-1.962380483747e-04-5.229594535194e-12 0.000000000000e+00
    8.100000000000e+01-7.509375000000e+01 4.244819670920e-09 6.567726244160e-02
   -3.874301910400e-06 9.516039863229e-03 1.022592186928e-05 5.153646141052e+03
    2.736000000000e+05 5.587935447693e-08-3.406852137181e-01 8.568167686462e-08
    9.751184017326e-01 1.871250000000e+02 6.330183077763e-01-8.067478900021e-09
   -5.846672108790e-10 1.000000000000e+00 2.176000000000e+03 0.000000000000e+00
    2.400000000000e+00 0.000000000000e+00 1.862645149231e-09 8.100000000000e+01
    2.664000000000e+05 4.000000000000e+00
30 21  9 22  4  0  0.0-4.752655513585e-04-3.751665644813e-12 0.000000000000e+00
    6.000000000000e+01 7.106250000000e+01 5.023066373734e-09-2.858055813839e+00
    3.678724169731e-06 5.362311843783e-03 1.014396548271e-05 5.153648870468e+03
    2.736000000000e+05-4.097819328308e-08-2.412640553763e+00-8.754432201385e-08
    9.367230210166e-01 1.756250000000e+02-2.733340420817e+00-8.199270103939e-09
    4.946634618616e-10 1.000000000000e+00 2.176000000000e+03 0.000000000000e+00
    2.400000000000e+00 0.000000000000e+00 3.725290298462e-09 6.000000000000e+01
    2.664000000000e+05 4.000000000000e+00
22 21  9 22  4  0  0.0-5.073421634734e-04 9.322320693173e-12 0.000000000000e+00
    8.900000000000e+01 1.656250000000e+01 5.480228273505e-09-1.004686226083e+00
    9.555369615555e-07 6.737744552083e-03 2.985820174217e-06 5.153721578598e+03
    2.736000000000e+05-1.415610313416e-07 1.650431474958e+00 7.450580596924e-09
    9.360582578751e-01 3.100000000000e+02-8.937116729413e-01-8.836796659480e-09
    2.028655930234e-10 1.000000000000e+00 2.176000000000e+03 0.000000000000e+00
    2.400000000000e+00 0.000000000000e+00-1.769512891769e-08 8.900000000000e+01
    2.664000000000e+05 4.000000000000e+00
19 21  9 22  4  0  0.0 5.611218512058e-05 5.002220859751e-12 0.000000000000e+00
    6.500000000000e+01-6.687500000000e+01 4.008024093148e-09 2.510384196378e+00
   -3.350898623466e-06 9.088212391362e-03 1.052953302860e-05 5.153655414581e+03
    2.736000000000e+05 1.471489667892e-07-2.342312559177e-01-1.303851604462e-08
    9.801128025923e-01 1.849062500000e+02 1.946429663031e+00-7.649247193278e-09
   -5.078782980268e-10 1.000000000000e+00 2.176000000000e+03 0.000000000000e+00
    2.400000000000e+00 0.000000000000e+00-1.536682248116e-08 6.500000000000e+01
    2.664000000000e+05 4.000000000000e+00
21 21  9 22  4  0  0.0 1.439526677132e-04 1.932676241267e-12 0.000000000000e+00
    4.100000000000e+01 4.478125000000e+01 4.469829043464e-09 2.327075184822e-01
    2.294778823853e-06 2.408258384094e-02 1.163035631180e-05 5.153641502380e+03
    2.736000000000e+05-8.754432201385e-08 6.304316930619e-01-3.594905138016e-07
    9.583706639392e-01 1.640000000000e+02-1.081092949575e+00-8.413564744457e-09
    2.364384200378e-10 1.000000000000e+00 2.176000000000e+03 0.000000000000e+00
    2.400000000000e+00 0.000000000000e+00-1.024454832077e-08 4.100000000000e+01
    2.664000000000e+05 4.000000000000e+00
